start=new Date('2021-11-13T00:00:00.000Z').valueOf();
sats=[{"MEAN_MOTION_DDOT":"0.0000000000000","RCS_SIZE":"LARGE","PERIAPSIS":"546.247","EPOCH":"2021-11-12T21:21:59.550912","EPHEMERIS_TYPE":"0","ECCENTRICITY":"0.00013910","ELEMENT_SET_NO":"999","OBJECT_TYPE":"PAYLOAD","SEMIMAJOR_AXIS":"6925.346","INCLINATION":"53.0312","BSTAR":"0.00020935000000","LAUNCH_DATE":"2020-11-25","GP_ID":"189621906","PERIOD":"95.592","SITE":"AFETR","OBJECT_NAME":"STARLINK-1843","COUNTRY_CODE":"US","MEAN_MOTION_DOT":"0.00002838","REV_AT_EPOCH":"5447","TIME_SYSTEM":"UTC","TLE_LINE2":"2 47133  53.0312 174.7563 0001391  71.3560 288.7580 15.06400944 54474","MEAN_MOTION":"15.06400944","CENTER_NAME":"EARTH","APOAPSIS":"548.174","RA_OF_ASC_NODE":"174.7563","REF_FRAME":"TEME","MEAN_ELEMENT_THEORY":"SGP4","NORAD_CAT_ID":"47133","MEAN_ANOMALY":"288.7580","FILE":"3213509","TLE_LINE1":"1 47133U 20088M   21316.89027258  .00002838  00000-0  20935-3 0  9993","ARG_OF_PERICENTER":"71.3560","OBJECT_ID":"2020-088M","DECAY_DATE":null,"CLASSIFICATION_TYPE":"U"},{"EPHEMERIS_TYPE":"0","EPOCH":"2021-11-12T22:19:01.236288","ECCENTRICITY":"0.00040250","RCS_SIZE":"LARGE","MEAN_MOTION_DDOT":"0.0000000000000","PERIAPSIS":"544.404","SEMIMAJOR_AXIS":"6925.327","INCLINATION":"53.0534","ELEMENT_SET_NO":"999","OBJECT_TYPE":"PAYLOAD","PERIOD":"95.592","GP_ID":"189645554","LAUNCH_DATE":"2020-11-25","SITE":"AFETR","BSTAR":"-0.00006692400000","OBJECT_NAME":"STARLINK-1844","TIME_SYSTEM":"UTC","CENTER_NAME":"EARTH","MEAN_MOTION":"15.06407072","TLE_LINE2":"2 47134  53.0534 184.4637 0004025 107.8122 252.3306 15.06407072 54031","MEAN_MOTION_DOT":"-0.00001280","COUNTRY_CODE":"US","REV_AT_EPOCH":"5403","MEAN_ELEMENT_THEORY":"SGP4","APOAPSIS":"549.979","REF_FRAME":"TEME","RA_OF_ASC_NODE":"184.4637","ARG_OF_PERICENTER":"107.8122","OBJECT_ID":"2020-088N","TLE_LINE1":"1 47134U 20088N   21316.92987542 -.00001280  00000-0 -66924-4 0  9990","NORAD_CAT_ID":"47134","MEAN_ANOMALY":"252.3306","FILE":"3213639","DECAY_DATE":null,"CLASSIFICATION_TYPE":"U"},{"ARG_OF_PERICENTER":"68.3184","OBJECT_ID":"2020-088P","TLE_LINE1":"1 47135U 20088P   21316.88288332 -.00000735  00000-0 -30416-4 0  9998","MEAN_ANOMALY":"291.7972","NORAD_CAT_ID":"47135","FILE":"3213512","DECAY_DATE":null,"CLASSIFICATION_TYPE":"U","TIME_SYSTEM":"UTC","CENTER_NAME":"EARTH","TLE_LINE2":"2 47135  53.0553 174.6680 0001569  68.3184 291.7972 15.06405002 54476","MEAN_MOTION":"15.06405002","MEAN_MOTION_DOT":"-0.00000735","COUNTRY_CODE":"US","REV_AT_EPOCH":"5447","MEAN_ELEMENT_THEORY":"SGP4","APOAPSIS":"548.285","REF_FRAME":"TEME","RA_OF_ASC_NODE":"174.6680","LAUNCH_DATE":"2020-11-25","GP_ID":"189621456","PERIOD":"95.592","SITE":"AFETR","BSTAR":"-0.00003041600000","OBJECT_NAME":"STARLINK-1845","EPHEMERIS_TYPE":"0","EPOCH":"2021-11-12T21:11:21.118848","ECCENTRICITY":"0.00015690","RCS_SIZE":"LARGE","MEAN_MOTION_DDOT":"0.0000000000000","PERIAPSIS":"546.112","INCLINATION":"53.0553","SEMIMAJOR_AXIS":"6925.333","ELEMENT_SET_NO":"999","OBJECT_TYPE":"PAYLOAD"},{"OBJECT_NAME":"STARLINK-1846","SITE":"AFETR","LAUNCH_DATE":"2020-11-25","GP_ID":"189621466","PERIOD":"95.593","BSTAR":"-0.00005241300000","INCLINATION":"53.0528","SEMIMAJOR_AXIS":"6925.391","OBJECT_TYPE":"PAYLOAD","ELEMENT_SET_NO":"999","ECCENTRICITY":"0.00014790","EPOCH":"2021-11-12T21:10:03.631008","EPHEMERIS_TYPE":"0","PERIAPSIS":"546.232","MEAN_MOTION_DDOT":"0.0000000000000","RCS_SIZE":"LARGE","CLASSIFICATION_TYPE":"U","DECAY_DATE":null,"TLE_LINE1":"1 47136U 20088Q   21316.88198647 -.00001062  00000-0 -52413-4 0  9993","ARG_OF_PERICENTER":"69.9597","OBJECT_ID":"2020-088Q","FILE":"3213512","MEAN_ANOMALY":"290.1551","NORAD_CAT_ID":"47136","MEAN_ELEMENT_THEORY":"SGP4","REF_FRAME":"TEME","RA_OF_ASC_NODE":"184.6683","APOAPSIS":"548.280","TLE_LINE2":"2 47136  53.0528 184.6683 0001479  69.9597 290.1551 15.06386202 54328","MEAN_MOTION":"15.06386202","CENTER_NAME":"EARTH","TIME_SYSTEM":"UTC","REV_AT_EPOCH":"5432","COUNTRY_CODE":"US","MEAN_MOTION_DOT":"-0.00001062"},{"OBJECT_ID":"2020-088R","ARG_OF_PERICENTER":"72.3222","TLE_LINE1":"1 47137U 20088R   21316.93080743 -.00000542  00000-0 -17463-4 0  9995","MEAN_ANOMALY":"287.7953","NORAD_CAT_ID":"47137","FILE":"3213639","DECAY_DATE":null,"CLASSIFICATION_TYPE":"U","TIME_SYSTEM":"UTC","CENTER_NAME":"EARTH","TLE_LINE2":"2 47137  53.0534 174.4559 0001701  72.3222 287.7953 15.06405362 54176","MEAN_MOTION":"15.06405362","MEAN_MOTION_DOT":"-0.00000542","COUNTRY_CODE":"US","REV_AT_EPOCH":"5417","MEAN_ELEMENT_THEORY":"SGP4","APOAPSIS":"548.375","RA_OF_ASC_NODE":"174.4559","REF_FRAME":"TEME","PERIOD":"95.592","GP_ID":"189646787","LAUNCH_DATE":"2020-11-25","SITE":"AFETR","BSTAR":"-0.00001746300000","OBJECT_NAME":"STARLINK-1849","EPHEMERIS_TYPE":"0","EPOCH":"2021-11-12T22:20:21.761952","ECCENTRICITY":"0.00017010","RCS_SIZE":"LARGE","MEAN_MOTION_DDOT":"0.0000000000000","PERIAPSIS":"546.019","INCLINATION":"53.0534","SEMIMAJOR_AXIS":"6925.332","OBJECT_TYPE":"PAYLOAD","ELEMENT_SET_NO":"999"},{"COUNTRY_CODE":"US","MEAN_MOTION_DOT":"-0.00000694","REV_AT_EPOCH":"5440","TIME_SYSTEM":"UTC","MEAN_MOTION":"15.06392248","TLE_LINE2":"2 47138  53.0552 179.5859 0001640  69.3982 290.7183 15.06392248 54400","CENTER_NAME":"EARTH","APOAPSIS":"548.373","RA_OF_ASC_NODE":"179.5859","REF_FRAME":"TEME","MEAN_ELEMENT_THEORY":"SGP4","NORAD_CAT_ID":"47138","MEAN_ANOMALY":"290.7183","FILE":"3213520","TLE_LINE1":"1 47138U 20088S   21316.89807209 -.00000694  00000-0 -27695-4 0  9991","ARG_OF_PERICENTER":"69.3982","OBJECT_ID":"2020-088S","DECAY_DATE":null,"CLASSIFICATION_TYPE":"U","MEAN_MOTION_DDOT":"0.0000000000000","RCS_SIZE":"LARGE","PERIAPSIS":"546.102","EPOCH":"2021-11-12T21:33:13.428576","EPHEMERIS_TYPE":"0","ECCENTRICITY":"0.00016400","OBJECT_TYPE":"PAYLOAD","ELEMENT_SET_NO":"999","INCLINATION":"53.0552","SEMIMAJOR_AXIS":"6925.372","BSTAR":"-0.00002769500000","GP_ID":"189621581","PERIOD":"95.593","LAUNCH_DATE":"2020-11-25","SITE":"AFETR","OBJECT_NAME":"STARLINK-1850"},{"ECCENTRICITY":"0.00017090","EPHEMERIS_TYPE":"0","EPOCH":"2021-11-12T21:26:35.285280","PERIAPSIS":"546.060","RCS_SIZE":"LARGE","MEAN_MOTION_DDOT":"0.0000000000000","INCLINATION":"53.0547","SEMIMAJOR_AXIS":"6925.379","OBJECT_TYPE":"PAYLOAD","ELEMENT_SET_NO":"999","SITE":"AFETR","GP_ID":"189645302","LAUNCH_DATE":"2020-11-25","PERIOD":"95.593","BSTAR":"-0.00001865400000","OBJECT_NAME":"STARLINK-1852","CENTER_NAME":"EARTH","TLE_LINE2":"2 47139  53.0547 189.6219 0001709  72.7819 287.3357 15.06390053 53956","MEAN_MOTION":"15.06390053","TIME_SYSTEM":"UTC","REV_AT_EPOCH":"5395","MEAN_MOTION_DOT":"-0.00000559","COUNTRY_CODE":"US","MEAN_ELEMENT_THEORY":"SGP4","REF_FRAME":"TEME","RA_OF_ASC_NODE":"189.6219","APOAPSIS":"548.428","ARG_OF_PERICENTER":"72.7819","OBJECT_ID":"2020-088T","TLE_LINE1":"1 47139U 20088T   21316.89346395 -.00000559  00000-0 -18654-4 0  9991","FILE":"3213639","MEAN_ANOMALY":"287.3357","NORAD_CAT_ID":"47139","CLASSIFICATION_TYPE":"U","DECAY_DATE":null},{"SEMIMAJOR_AXIS":"6712.098","INCLINATION":"53.0487","OBJECT_TYPE":"PAYLOAD","ELEMENT_SET_NO":"999","ECCENTRICITY":"0.00089830","EPOCH":"2021-11-12T18:10:28.073568","EPHEMERIS_TYPE":"0","PERIAPSIS":"327.933","MEAN_MOTION_DDOT":"0.0000000000000","RCS_SIZE":"LARGE","OBJECT_NAME":"STARLINK-1853","SITE":"AFETR","PERIOD":"91.211","GP_ID":"189646042","LAUNCH_DATE":"2020-11-25","BSTAR":"0.00034838000000","MEAN_ELEMENT_THEORY":"SGP4","REF_FRAME":"TEME","RA_OF_ASC_NODE":"138.5499","APOAPSIS":"339.992","MEAN_MOTION":"15.78757211","TLE_LINE2":"2 47140  53.0487 138.5499 0008983 325.4710  34.5726 15.78757211 54666","CENTER_NAME":"EARTH","TIME_SYSTEM":"UTC","REV_AT_EPOCH":"5466","COUNTRY_CODE":"US","MEAN_MOTION_DOT":"0.00062367","CLASSIFICATION_TYPE":"U","DECAY_DATE":null,"TLE_LINE1":"1 47140U 20088U   21316.75726937  .00062367  00000-0  34838-3 0  9996","OBJECT_ID":"2020-088U","ARG_OF_PERICENTER":"325.4710","FILE":"3213639","NORAD_CAT_ID":"47140","MEAN_ANOMALY":"34.5726"},{"RA_OF_ASC_NODE":"174.5155","REF_FRAME":"TEME","APOAPSIS":"548.345","MEAN_ELEMENT_THEORY":"SGP4","REV_AT_EPOCH":"5417","MEAN_MOTION_DOT":"-0.00001069","COUNTRY_CODE":"US","CENTER_NAME":"EARTH","TLE_LINE2":"2 47141  53.0623 174.5155 0001606  70.5187 289.5975 15.06393842 54170","MEAN_MOTION":"15.06393842","TIME_SYSTEM":"UTC","CLASSIFICATION_TYPE":"U","DECAY_DATE":null,"FILE":"3213639","MEAN_ANOMALY":"289.5975","NORAD_CAT_ID":"47141","ARG_OF_PERICENTER":"70.5187","OBJECT_ID":"2020-088V","TLE_LINE1":"1 47141U 20088V   21316.90500797 -.00001069  00000-0 -52864-4 0  9992","OBJECT_TYPE":"PAYLOAD","ELEMENT_SET_NO":"999","SEMIMAJOR_AXIS":"6925.367","INCLINATION":"53.0623","PERIAPSIS":"546.120","RCS_SIZE":"LARGE","MEAN_MOTION_DDOT":"0.0000000000000","ECCENTRICITY":"0.00016060","EPHEMERIS_TYPE":"0","EPOCH":"2021-11-12T21:43:12.688608","OBJECT_NAME":"STARLINK-1854","BSTAR":"-0.00005286400000","SITE":"AFETR","LAUNCH_DATE":"2020-11-25","GP_ID":"189646287","PERIOD":"95.593"},{"ELEMENT_SET_NO":"999","OBJECT_TYPE":"PAYLOAD","INCLINATION":"53.0530","SEMIMAJOR_AXIS":"6925.322","PERIAPSIS":"546.084","RCS_SIZE":"LARGE","MEAN_MOTION_DDOT":"0.0000000000000","ECCENTRICITY":"0.00015920","EPHEMERIS_TYPE":"0","EPOCH":"2021-11-12T21:16:39.072576","OBJECT_NAME":"STARLINK-1856","BSTAR":"0.00002858200000","SITE":"AFETR","PERIOD":"95.592","GP_ID":"189645555","LAUNCH_DATE":"2020-11-25","RA_OF_ASC_NODE":"174.6399","REF_FRAME":"TEME","APOAPSIS":"548.289","MEAN_ELEMENT_THEORY":"SGP4","REV_AT_EPOCH":"5416","MEAN_MOTION_DOT":"0.00000144","COUNTRY_CODE":"US","CENTER_NAME":"EARTH","MEAN_MOTION":"15.06408758","TLE_LINE2":"2 47143  53.0530 174.6399 0001592  73.4648 286.6516 15.06408758 54169","TIME_SYSTEM":"UTC","CLASSIFICATION_TYPE":"U","DECAY_DATE":null,"FILE":"3213639","NORAD_CAT_ID":"47143","MEAN_ANOMALY":"286.6516","OBJECT_ID":"2020-088X","ARG_OF_PERICENTER":"73.4648","TLE_LINE1":"1 47143U 20088X   21316.88656334  .00000144  00000-0  28582-4 0  9991"}];
